{
  "norad_id": 48907,
  "name": "MANDRAKE 2 ABLE",
  "history": [
    {
      "epoch": "2026-03-28T18:42:20.776896Z",
      "apogee_km": 414.82818390144985,
      "perigee_km": 408.94937957961884,
      "latitude_deg": 2.4249646760713437e-05,
      "longitude_deg": 164.84377172569143,
      "height_km": 414.3324229422407,
      "semi_major_axis_km": 6790.025781740534,
      "eccentricity": 0.0004329,
      "inclination_deg": 97.7056,
      "raan_deg": 271.6253,
      "arg_perigee_deg": 283.4863,
      "mean_anomaly_deg": 76.5906,
      "mean_motion_rev_day": 15.5165665
    },
    {
      "epoch": "2026-03-29T00:53:48.125184Z",
      "apogee_km": 414.76539907148344,
      "perigee_km": 408.9165120605594,
      "latitude_deg": -3.0369913668723467e-05,
      "longitude_deg": 72.00207534382716,
      "height_km": 414.33754863841006,
      "semi_major_axis_km": 6789.977955566022,
      "eccentricity": 0.0004307,
      "inclination_deg": 97.7055,
      "raan_deg": 271.9018,
      "arg_perigee_deg": 282.4925,
      "mean_anomaly_deg": 77.5844,
      "mean_motion_rev_day": 15.51673044
    },
    {
      "epoch": "2026-03-30T01:39:35.196768Z",
      "apogee_km": 414.56991046982694,
      "perigee_km": 408.72390652461036,
      "latitude_deg": -1.8372405590021505e-05,
      "longitude_deg": 60.64455932704675,
      "height_km": 414.3508088552801,
      "semi_major_axis_km": 6789.783908497218,
      "eccentricity": 0.0004305,
      "inclination_deg": 97.7049,
      "raan_deg": 273.0074,
      "arg_perigee_deg": 278.37,
      "mean_anomaly_deg": 81.7063,
      "mean_motion_rev_day": 15.51739563
    },
    {
      "epoch": "2026-03-30T01:39:35.197632Z",
      "apogee_km": 414.56963887847087,
      "perigee_km": 408.7241781159664,
      "latitude_deg": -2.289690807480213e-05,
      "longitude_deg": 60.64455632590985,
      "height_km": 414.3508483992,
      "semi_major_axis_km": 6789.783908497218,
      "eccentricity": 0.00043046,
      "inclination_deg": 97.7049,
      "raan_deg": 273.0074,
      "arg_perigee_deg": 278.37,
      "mean_anomaly_deg": 81.7063,
      "mean_motion_rev_day": 15.51739563
    },
    {
      "epoch": "2026-03-30T10:56:44.443680Z",
      "apogee_km": 414.5269512751711,
      "perigee_km": 408.6384989463713,
      "latitude_deg": -4.4013921270638546e-05,
      "longitude_deg": -78.61052401697184,
      "height_km": 414.33586636653,
      "semi_major_axis_km": 6789.719725110771,
      "eccentricity": 0.00043363,
      "inclination_deg": 97.7048,
      "raan_deg": 273.4222,
      "arg_perigee_deg": 277.3436,
      "mean_anomaly_deg": 82.7322,
      "mean_motion_rev_day": 15.51761566
    },
    {
      "epoch": "2026-03-30T18:41:01.764960Z",
      "apogee_km": 414.47851791773155,
      "perigee_km": 408.5762626632513,
      "latitude_deg": -5.555988406932474e-05,
      "longitude_deg": 165.3448115943989,
      "height_km": 414.37174985556425,
      "semi_major_axis_km": 6789.664390290491,
      "eccentricity": 0.00043465,
      "inclination_deg": 97.7048,
      "raan_deg": 273.7675,
      "arg_perigee_deg": 275.5454,
      "mean_anomaly_deg": 84.5301,
      "mean_motion_rev_day": 15.51780536
    },
    {
      "epoch": "2026-03-31T11:42:26.690688Z",
      "apogee_km": 414.33978906851644,
      "perigee_km": 408.48556775380257,
      "latitude_deg": 9.806320856101676e-06,
      "longitude_deg": -89.94778747726816,
      "height_km": 414.4005708834079,
      "semi_major_axis_km": 6789.549678411159,
      "eccentricity": 0.00043112,
      "inclination_deg": 97.7047,
      "raan_deg": 274.5279,
      "arg_perigee_deg": 272.775,
      "mean_anomaly_deg": 87.3008,
      "mean_motion_rev_day": 15.51819863
    },
    {
      "epoch": "2026-04-01T10:55:14.530656Z",
      "apogee_km": 414.22495102206267,
      "perigee_km": 408.3059499657211,
      "latitude_deg": 5.112392015100676e-06,
      "longitude_deg": -78.063654664644,
      "height_km": 414.4326405744936,
      "semi_major_axis_km": 6789.402450493892,
      "eccentricity": 0.0004359,
      "inclination_deg": 97.7048,
      "raan_deg": 275.5647,
      "arg_perigee_deg": 269.2753,
      "mean_anomaly_deg": 90.7999,
      "mean_motion_rev_day": 15.5187034
    },
    {
      "epoch": "2026-04-02T11:40:50.329632Z",
      "apogee_km": 414.02065509353724,
      "perigee_km": 408.11431875809103,
      "latitude_deg": 6.50774470554948e-07,
      "longitude_deg": -89.37407022691282,
      "height_km": 414.45816922859643,
      "semi_major_axis_km": 6789.204486925813,
      "eccentricity": 0.00043498,
      "inclination_deg": 97.7048,
      "raan_deg": 276.6703,
      "arg_perigee_deg": 264.9334,
      "mean_anomaly_deg": 95.1421,
      "mean_motion_rev_day": 15.51938216
    },
    {
      "epoch": "2026-04-03T10:53:31.201440Z",
      "apogee_km": 413.8085855948284,
      "perigee_km": 407.8965976786394,
      "latitude_deg": -3.0043651076582855e-05,
      "longitude_deg": -77.46152137975925,
      "height_km": 414.498417297631,
      "semi_major_axis_km": 6788.989591636734,
      "eccentricity": 0.00043541,
      "inclination_deg": 97.7049,
      "raan_deg": 277.7064,
      "arg_perigee_deg": 259.9502,
      "mean_anomaly_deg": 100.1258,
      "mean_motion_rev_day": 15.52011903
    },
    {
      "epoch": "2026-04-04T11:38:58.801920Z",
      "apogee_km": 413.59414441610534,
      "perigee_km": 407.7054149876567,
      "latitude_deg": -6.1034831724424425e-05,
      "longitude_deg": -88.737380959092,
      "height_km": 414.4963049457927,
      "semi_major_axis_km": 6788.786779701881,
      "eccentricity": 0.00043371,
      "inclination_deg": 97.7049,
      "raan_deg": 278.8123,
      "arg_perigee_deg": 255.9166,
      "mean_anomaly_deg": 104.1603,
      "mean_motion_rev_day": 15.52081452
    },
    {
      "epoch": "2026-04-05T10:51:32.530176Z",
      "apogee_km": 413.4455663653389,
      "perigee_km": 407.5360658514164,
      "latitude_deg": 6.845519763154585e-05,
      "longitude_deg": -76.7945089939178,
      "height_km": 414.5505792873833,
      "semi_major_axis_km": 6788.627816108377,
      "eccentricity": 0.00043525,
      "inclination_deg": 97.7052,
      "raan_deg": 279.8489,
      "arg_perigee_deg": 251.6612,
      "mean_anomaly_deg": 108.4167,
      "mean_motion_rev_day": 15.52135968
    },
    {
      "epoch": "2026-04-05T18:35:43.211616Z",
      "apogee_km": 413.4036770241173,
      "perigee_km": 407.4962486490558,
      "latitude_deg": 2.688328322318607e-05,
      "longitude_deg": 167.1888714541786,
      "height_km": 414.5818514845199,
      "semi_major_axis_km": 6788.586962836586,
      "eccentricity": 0.0004351,
      "inclination_deg": 97.7052,
      "raan_deg": 280.1945,
      "arg_perigee_deg": 250.1741,
      "mean_anomaly_deg": 109.9042,
      "mean_motion_rev_day": 15.52149979
    },
    {
      "epoch": "2026-04-06T05:25:33.717216Z",
      "apogee_km": 413.33758926352493,
      "perigee_km": 407.4376825024792,
      "latitude_deg": 4.2464629608730364e-05,
      "longitude_deg": 4.7675275139209985,
      "height_km": 414.6296780585896,
      "semi_major_axis_km": 6788.524635883002,
      "eccentricity": 0.00043455,
      "inclination_deg": 97.7054,
      "raan_deg": 280.6784,
      "arg_perigee_deg": 247.8556,
      "mean_anomaly_deg": 112.2235,
      "mean_motion_rev_day": 15.52171355
    },
    {
      "epoch": "2026-04-07T10:49:22.167264Z",
      "apogee_km": 413.1710651569274,
      "perigee_km": 407.2502683219973,
      "latitude_deg": -2.5582260969092053e-05,
      "longitude_deg": -76.07842510855835,
      "height_km": 414.71489187244805,
      "semi_major_axis_km": 6788.3476667394625,
      "eccentricity": 0.0004361,
      "inclination_deg": 97.7052,
      "raan_deg": 281.9916,
      "arg_perigee_deg": 242.3431,
      "mean_anomaly_deg": 117.7378,
      "mean_motion_rev_day": 15.52232052
    },
    {
      "epoch": "2026-04-08T11:34:38.129664Z",
      "apogee_km": 413.07938210287193,
      "perigee_km": 407.1137466818118,
      "latitude_deg": 7.5048895276020386e-06,
      "longitude_deg": -87.30557113976266,
      "height_km": 414.82582053543456,
      "semi_major_axis_km": 6788.233564392342,
      "eccentricity": 0.00043941,
      "inclination_deg": 97.7053,
      "raan_deg": 283.0976,
      "arg_perigee_deg": 237.5783,
      "mean_anomaly_deg": 122.5044,
      "mean_motion_rev_day": 15.52271189
    },
    {
      "epoch": "2026-04-09T10:47:02.116320Z",
      "apogee_km": 413.00257753806545,
      "perigee_km": 406.9629158746311,
      "latitude_deg": -4.182093544625543e-05,
      "longitude_deg": -75.32177559073843,
      "height_km": 414.94192219878954,
      "semi_major_axis_km": 6788.119746706348,
      "eccentricity": 0.00044487,
      "inclination_deg": 97.7052,
      "raan_deg": 284.1344,
      "arg_perigee_deg": 232.7186,
      "mean_anomaly_deg": 127.366,
      "mean_motion_rev_day": 15.5231023
    },
    {
      "epoch": "2026-04-10T00:42:27.540288Z",
      "apogee_km": 412.9676511664193,
      "perigee_km": 406.86139153987097,
      "latitude_deg": 2.1021203108207754e-05,
      "longitude_deg": 75.87245385594133,
      "height_km": 415.02466249301915,
      "semi_major_axis_km": 6788.051521353144,
      "eccentricity": 0.00044978,
      "inclination_deg": 97.7055,
      "raan_deg": 284.7564,
      "arg_perigee_deg": 229.5645,
      "mean_anomaly_deg": 130.5215,
      "mean_motion_rev_day": 15.52333633
    },
    {
      "epoch": "2026-04-11T18:28:39.206208Z",
      "apogee_km": 412.80142005193557,
      "perigee_km": 406.6299044114339,
      "latitude_deg": 1.3830211472778438e-05,
      "longitude_deg": 169.47541417646397,
      "height_km": 415.085201687117,
      "semi_major_axis_km": 6787.852662231684,
      "eccentricity": 0.0004546,
      "inclination_deg": 97.7054,
      "raan_deg": 286.6234,
      "arg_perigee_deg": 223.4607,
      "mean_anomaly_deg": 136.6287,
      "mean_motion_rev_day": 15.5240185
    }
  ]
}